{
  "type": "FeatureCollection",
  "features": [
    {
      "type": "Feature",
      "properties": {
        "norad_id": 38091,
        "name": "BEIDOU-2 G5 (C05)",
        "group": "gnss",
        "lat": -2.98871281152982,
        "lon": -5.172954893662719,
        "alt_km": 35758.84614018805,
        "timestamp": "2025-12-05T14:45:15.543275+00:00",
        "meta_object_name": "BEIDOU-2 G5 (C05)",
        "meta_object_id": "2012-008A",
        "meta_epoch": "2025-12-04T17:25:50.820960",
        "meta_mean_motion": 1.00272702,
        "meta_eccentricity": 0.0012417,
        "meta_inclination": 3.088,
        "meta_ra_of_asc_node": 70.7318,
        "meta_arg_of_pericenter": 225.7173,
        "meta_mean_anomaly": 97.5153,
        "meta_ephemeris_type": 0,
        "meta_classification_type": "U",
        "meta_norad_cat_id": 38091,
        "meta_element_set_no": 999,
        "meta_rev_at_epoch": 5041,
        "meta_bstar": 0,
        "meta_mean_motion_dot": 6.9e-07,
        "meta_mean_motion_ddot": 0,
        "tle_line1": "1 38091U 12008A   25338.72628265  .00000069  00000+0  00000+0 0  9994",
        "tle_line2": "2 38091   3.0880  70.7318 0012417 225.7173  97.5153  1.00272702 50411"
      },
      "geometry": {
        "type": "Point",
        "coordinates": [
          -5.172954893662719,
          -2.98871281152982
        ]
      }
    },
    {
      "type": "Feature",
      "properties": {
        "norad_id": 38250,
        "name": "BEIDOU-2 M3 (C11)",
        "group": "gnss",
        "lat": 0.6814024502949818,
        "lon": 130.91492850008157,
        "alt_km": 21533.80182367763,
        "timestamp": "2025-12-05T14:45:15.543290+00:00",
        "meta_object_name": "BEIDOU-2 M3 (C11)",
        "meta_object_id": "2012-018A",
        "meta_epoch": "2025-12-04T06:32:53.001888",
        "meta_mean_motion": 1.86229694,
        "meta_eccentricity": 0.0024462,
        "meta_inclination": 55.9274,
        "meta_ra_of_asc_node": 311.4423,
        "meta_arg_of_pericenter": 273.73,
        "meta_mean_anomaly": 85.9745,
        "meta_ephemeris_type": 0,
        "meta_classification_type": "U",
        "meta_norad_cat_id": 38250,
        "meta_element_set_no": 999,
        "meta_rev_at_epoch": 9231,
        "meta_bstar": 0,
        "meta_mean_motion_dot": -6.8e-07,
        "meta_mean_motion_ddot": 0,
        "tle_line1": "1 38250U 12018A   25338.27283567 -.00000068  00000+0  00000+0 0  9994",
        "tle_line2": "2 38250  55.9274 311.4423 0024462 273.7300  85.9745  1.86229694 92310"
      },
      "geometry": {
        "type": "Point",
        "coordinates": [
          130.91492850008157,
          0.6814024502949818
        ]
      }
    },
    {
      "type": "Feature",
      "properties": {
        "norad_id": 38251,
        "name": "BEIDOU-2 M4 (C12)",
        "group": "gnss",
        "lat": -35.78185979356345,
        "lon": 159.90645328014372,
        "alt_km": 21505.707779889286,
        "timestamp": "2025-12-05T14:45:15.543301+00:00",
        "meta_object_name": "BEIDOU-2 M4 (C12)",
        "meta_object_id": "2012-018B",
        "meta_epoch": "2025-12-04T04:55:01.467840",
        "meta_mean_motion": 1.86229385,
        "meta_eccentricity": 0.0015607,
        "meta_inclination": 55.8289,
        "meta_ra_of_asc_node": 310.6742,
        "meta_arg_of_pericenter": 276.8686,
        "meta_mean_anomaly": 82.9379,
        "meta_ephemeris_type": 0,
        "meta_classification_type": "U",
        "meta_norad_cat_id": 38251,
        "meta_element_set_no": 999,
        "meta_rev_at_epoch": 9231,
        "meta_bstar": 0,
        "meta_mean_motion_dot": -6.8e-07,
        "meta_mean_motion_ddot": 0,
        "tle_line1": "1 38251U 12018B   25338.20487810 -.00000068  00000+0  00000+0 0  9995",
        "tle_line2": "2 38251  55.8289 310.6742 0015607 276.8686  82.9379  1.86229385 92310"
      },
      "geometry": {
        "type": "Point",
        "coordinates": [
          159.90645328014372,
          -35.78185979356345
        ]
      }
    },
    {
      "type": "Feature",
      "properties": {
        "norad_id": 38652,
        "name": "SES-5 (EGNOS/PRN 136)",
        "group": "gnss",
        "lat": -0.01419400669596327,
        "lon": -59.045435040804705,
        "alt_km": 35781.331680583586,
        "timestamp": "2025-12-05T14:45:15.543329+00:00",
        "meta_object_name": "SES-5 (EGNOS/PRN 136)",
        "meta_object_id": "2012-036A",
        "meta_epoch": "2025-12-04T13:44:49.493184",
        "meta_mean_motion": 1.00268756,
        "meta_eccentricity": 0.0002218,
        "meta_inclination": 0.0562,
        "meta_ra_of_asc_node": 305.395,
        "meta_arg_of_pericenter": 301.5042,
        "meta_mean_anomaly": 37.9261,
        "meta_ephemeris_type": 0,
        "meta_classification_type": "U",
        "meta_norad_cat_id": 38652,
        "meta_element_set_no": 999,
        "meta_rev_at_epoch": 4251,
        "meta_bstar": 0,
        "meta_mean_motion_dot": 4.8e-07,
        "meta_mean_motion_ddot": 0,
        "tle_line1": "1 38652U 12036A   25338.57279506  .00000048  00000+0  00000+0 0  9998",
        "tle_line2": "2 38652   0.0562 305.3950 0002218 301.5042  37.9261  1.00268756 42517"
      },
      "geometry": {
        "type": "Point",
        "coordinates": [
          -59.045435040804705,
          -0.01419400669596327
        ]
      }
    },
    {
      "type": "Feature",
      "properties": {
        "norad_id": 38775,
        "name": "BEIDOU-2 M6 (C14)",
        "group": "gnss",
        "lat": 45.64007489888778,
        "lon": 112.11296685399019,
        "alt_km": 21513.58247528239,
        "timestamp": "2025-12-05T14:45:15.543345+00:00",
        "meta_object_name": "BEIDOU-2 M6 (C14)",
        "meta_object_id": "2012-050B",
        "meta_epoch": "2025-12-02T20:12:21.766176",
        "meta_mean_motion": 1.86230699,
        "meta_eccentricity": 0.00108906,
        "meta_inclination": 56.3701,
        "meta_ra_of_asc_node": 69.396,
        "meta_arg_of_pericenter": 346.3051,
        "meta_mean_anomaly": 13.6678,
        "meta_ephemeris_type": 0,
        "meta_classification_type": "U",
        "meta_norad_cat_id": 38775,
        "meta_element_set_no": 999,
        "meta_rev_at_epoch": 8965,
        "meta_bstar": 0,
        "meta_mean_motion_dot": -4.8e-07,
        "meta_mean_motion_ddot": 0,
        "tle_line1": "1 38775U 12050B   25336.84191859 -.00000048  00000+0  00000+0 0  9993",
        "tle_line2": "2 38775  56.3701  69.3960 0010890 346.3051  13.6678  1.86230699 89650"
      },
      "geometry": {
        "type": "Point",
        "coordinates": [
          112.11296685399019,
          45.64007489888778
        ]
      }
    },
    {
      "type": "Feature",
      "properties": {
        "norad_id": 38779,
        "name": "GSAT-10 (GAGAN/PRN 128)",
        "group": "gnss",
        "lat": 0.03744677794119199,
        "lon": 18.892468590236938,
        "alt_km": 35791.75762828743,
        "timestamp": "2025-12-05T14:45:15.543357+00:00",
        "meta_object_name": "GSAT-10 (GAGAN/PRN 128)",
        "meta_object_id": "2012-051B",
        "meta_epoch": "2025-12-04T14:07:17.340096",
        "meta_mean_motion": 1.00268946,
        "meta_eccentricity": 0.0002381,
        "meta_inclination": 0.0292,
        "meta_ra_of_asc_node": 263.0358,
        "meta_arg_of_pericenter": 234.9958,
        "meta_mean_anomaly": 230.4072,
        "meta_ephemeris_type": 0,
        "meta_classification_type": "U",
        "meta_norad_cat_id": 38779,
        "meta_element_set_no": 999,
        "meta_rev_at_epoch": 4814,
        "meta_bstar": 0,
        "meta_mean_motion_dot": -1.49e-06,
        "meta_mean_motion_ddot": 0,
        "tle_line1": "1 38779U 12051B   25338.58839514 -.00000149  00000+0  00000+0 0  9990",
        "tle_line2": "2 38779   0.0292 263.0358 0002381 234.9958 230.4072  1.00268946 48141"
      },
      "geometry": {
        "type": "Point",
        "coordinates": [
          18.892468590236938,
          0.03744677794119199
        ]
      }
    },
    {
      "type": "Feature",
      "properties": {
        "norad_id": 38833,
        "name": "GPS BIIF-3  (PRN 24)",
        "group": "gnss",
        "lat": 1.1642234440197716,
        "lon": -29.34022482833524,
        "alt_km": 20369.126011328495,
        "timestamp": "2025-12-05T14:45:15.543369+00:00",
        "meta_object_name": "GPS BIIF-3  (PRN 24)",
        "meta_object_id": "2012-053A",
        "meta_epoch": "2025-12-01T21:10:58.228896",
        "meta_mean_motion": 2.00564835,
        "meta_eccentricity": 0.01754817,
        "meta_inclination": 53.5559,
        "meta_ra_of_asc_node": 151.6834,
        "meta_arg_of_pericenter": 63.8436,
        "meta_mean_anomaly": 297.9871,
        "meta_ephemeris_type": 0,
        "meta_classification_type": "U",
        "meta_norad_cat_id": 38833,
        "meta_element_set_no": 999,
        "meta_rev_at_epoch": 9548,
        "meta_bstar": 0,
        "meta_mean_motion_dot": 1.16e-06,
        "meta_mean_motion_ddot": 0,
        "tle_line1": "1 38833U 12053A   25335.88261839  .00000116  00000+0  00000+0 0  9995",
        "tle_line2": "2 38833  53.5559 151.6834 0175481  63.8436 297.9871  2.00564835 95485"
      },
      "geometry": {
        "type": "Point",
        "coordinates": [
          -29.34022482833524,
          1.1642234440197716
        ]
      }
    }
  ]
}